0 THORAD AGENA D DEB
1 09668U 70025NM  13282.88321495  .00002132  00000-0  74282-3 0  5124
2 09668 100.1273 347.2525 0075222 338.3919 078.8063 14.35126519910152
0 THORAD AGENA D DEB
1 09668U 70025NM  13283.92781634  .00002795  00000-0  96762-3 0  5138
2 09668 100.1270 348.4758 0075200 335.4869 075.6581 14.35128106910309
0 THORAD AGENA D DEB
1 09668U 70025NM  13286.45159133  .00002343  00000-0  81423-3 0  5151
2 09668 100.1275 351.4330 0075200 328.2540 154.8114 14.35138988910660
0 THORAD AGENA D DEB
1 09668U 70025NM  13287.70715700  .00003163  00000-0  10918-2 0  5160
2 09668 100.1275 352.9044 0075218 324.6509 161.7667 14.35145585910843
0 THORAD AGENA D DEB
1 09668U 70025NM  13289.15702635  .00003502  00000-0  12063-2 0  5175
2 09668 100.1272 354.6037 0075236 320.4869 092.6562 14.35155855911055
0 THORAD AGENA D DEB
1 09668U 70025NM  13291.18024749  .00003121  00000-0  10771-2 0  5186
2 09668 100.1264 356.9745 0075257 314.7024 105.8711 14.35167312911345
0 THORAD AGENA D DEB
1 09668U 70025NM  13292.44825431  .00003170  00000-0  10934-2 0  5199
2 09668 100.1260 358.4603 0075316 311.0326 177.2689 14.35173199911529
0 THORAD AGENA D DEB
1 09668U 70025NM  13294.17124573  .00003624  00000-0  12470-2 0  5203
2 09668 100.1255 000.4791 0075380 306.1130 079.4121 14.35182157911779
0 THORAD AGENA D DEB
1 09668U 70025NM  13296.12979122  .00003961  00000-0  13607-2 0  5216
2 09668 100.1251 002.7735 0075438 300.5348 118.6425 14.35193222912051
